PROBA-1                 
1 26958U 01049B   26169.86246561  .00000848  00000+0  58473-4 0  9996
2 26958  97.9594 178.4534 0056497 116.3541 244.3503 15.07497209343879
CUTE-1 (CO-55)          
1 27844U 03031E   26169.72312841  .00000216  00000+0  11222-3 0  9993
2 27844  98.6736 178.2627 0009643 173.5600 186.5705 14.24336519191891
CUBESAT XI-IV (CO-57)   
1 27848U 03031J   26168.93924090  .00000186  00000+0  10079-3 0  9999
2 27848  98.6765 177.2007 0009073 194.7196 165.3719 14.23621196191482
APRIZESAT 4             
1 35684U 09041D   26169.74053902  .00000479  00000+0  63870-4 0  9991
2 35684  98.1412 245.0920 0042310 317.8956  41.9009 14.83881043911592
APRIZESAT 3             
1 35686U 09041F   26169.43647065  .00001583  00000+0  14062-3 0  9993
2 35686  98.2065 322.7199 0062803  63.7248 297.0406 14.96245554916562
PROBA-2                 
1 36037U 09059B   26169.75353534  .00000126  00000+0  39902-4 0  9996
2 36037  98.2451 353.0845 0011947 276.7283  83.2554 14.54863007881759
APRIZESAT 5             
1 37792U 11044E   26169.76376914  .00000861  00000+0  11598-3 0  9996
2 37792  98.2452 102.8488 0052213 359.2691   0.8435 14.81079046799026
APRIZESAT 6             
1 37793U 11044F   26169.70424558  .00000606  00000+0  92657-4 0  9992
2 37793  98.2362  80.2348 0044486  81.3364 335.6808 14.76917857797378
PROBA-V                 
1 39159U 13021A   26169.38428133  .00000046  00000+0  38301-4 0  9998
2 39159  98.3584 147.9318 0005185 120.6226 239.5465 14.23597149681281
APRIZESAT 7             
1 39416U 13066A   26169.76400634  .00000903  00000+0  94718-4 0  9997
2 39416  97.7709 122.9612 0035120 203.9549 156.0038 14.91567039681463
APRIZESAT 8             
1 39425U 13066K   26169.82297818  .00000711  00000+0  83016-4 0  9998
2 39425  97.8220 117.2680 0044381 280.9923  78.6303 14.87655145679916
BUGSAT-1 (TITA)         
1 40014U 14033E   26169.81883589  .00002590  00000+0  13913-3 0  9999
2 40014  98.0428 262.4629 0028122 172.8180 187.3460 15.15596038656082
SAUDISAT 4              
1 40016U 14033G   26169.40381897  .00000519  00000+0  74909-4 0  9993
2 40016  97.7584 315.4963 0046120  70.1505 290.4670 14.79546128646253
APRIZESAT 9             
1 40018U 14033J   26169.63296534  .00000554  00000+0  88868-4 0  9991
2 40018  97.9064 302.7962 0065801 194.4917 165.4407 14.74216240643779
APRIZESAT 10            
1 40019U 14033K   26169.62325329  .00000337  00000+0  61064-4 0  9994
2 40019  97.9652 296.5506 0077394 269.1750  90.0589 14.70883483642466
TECHDEMOSAT-1 (TDS-1)   
1 40076U 14037H   26169.41482479  .00006014  00000+0  34199-3 0  9994
2 40076  98.3815 161.7491 0004562 260.1558  99.9156 15.13307168648413
TECHNOSAT               
1 42829U 17042E   26169.71201740  .00002941  00000+0  21082-3 0  9996
2 42829  97.4294 327.3113 0019059  89.4279 270.9132 15.04970473486939
FLYING LAPTOP           
1 42831U 17042G   26169.85196198  .00002932  00000+0  23235-3 0  9996
2 42831  97.4694 325.3204 0019612 116.1799 244.1446 15.01155413486707
HAWK-A                  
1 43765U 18099H   26169.85762047  .00004719  00000+0  19115-3 0  9995
2 43765  97.3908 222.0720 0033084 279.6840  80.0661 15.24658193413353
HAWK-B                  
1 43794U 18099AN  26169.68402272  .00004730  00000+0  20266-3 0  9991
2 43794  97.3957 221.3127 0030385 299.4016  60.4188 15.22838925413265
HAWK-C                  
1 43799U 18099AT  26169.69941935  .00006029  00000+0  21791-3 0  9998
2 43799  97.3885 222.8355 0038707 280.1895  79.4980 15.28119893414147
SALSAT                  
1 46495U 20068K   26169.45370448  .00006100  00000+0  21401-3 0  9990
2 46495  97.8850 172.5954 0007987 302.8690  57.1780 15.29814902315557
HAWK-2C                 
1 47502U 21006CT  26169.84754888  .00005119  00000+0  15455-3 0  9991
2 47502  97.2273 214.1245 0006887 179.9530 180.1716 15.34679584299750
HAWK-2A                 
1 47505U 21006CW  26169.85002525  .00005111  00000+0  15425-3 0  9998
2 47505  97.2314 214.8057 0006300 182.7979 177.3230 15.34694378299753
HAWK-2B                 
1 47508U 21006CZ  26169.84546471  .00005675  00000+0  17050-3 0  9994
2 47508  97.2184 213.1303 0006913 181.2785 178.8442 15.34784463299752
HAWK-3B                 
1 48931U 21059BE  26169.79055843  .00036971  00000+0  31249-3 0  9994
2 48931  97.6657   6.6497 0003184 322.7987  37.3053 15.69671922278100
HAWK-3C                 
1 48948U 21059BX  26169.08897472  .00034621  00000+0  29341-3 0  9996
2 48948  97.6772  11.5690 0003490 328.3716  31.7335 15.69618054277992
HAWK-3A                 
1 48957U 21059CG  26169.28008273  .00038183  00000+0  32291-3 0  9996
2 48957  97.6716   8.9829 0003460 329.5051  30.6008 15.69650937278022
HAWK-5C                 
1 52754U 22057Y   26169.39860828  .00014052  00000+0  23995-3 0  9999
2 52754  97.6605 329.1429 0004947  79.6625 280.5183 15.51427738226535
HAWK-5B                 
1 52756U 22057AA  26169.39845583  .00014515  00000+0  24773-3 0  9991
2 52756  97.6614 327.4921 0005611  72.4608 287.7256 15.51429515226531
HAWK-5A                 
1 52757U 22057AB  26169.72074237  .00015262  00000+0  26029-3 0  9995
2 52757  97.6613 328.6668 0005507  74.2620 285.9238 15.51436735226587
